TIANWANG 1C (TW-1C)     
1 40926U 15051B   17153.07737372  .00009820  00000-0  22808-3 0  9998
2 40926  97.2296 192.7566 0009867 220.8415 195.2597 15.42508394 94592
TIANWANG 1B (TW-1B)     
1 40927U 15051C   17153.14011666  .00009865  00000-0  23757-3 0  9991
2 40927  97.2392 192.8435 0010272 227.6593 206.7315 15.41413706 94553
TIANWANG 1A (TW-1A)     
1 40928U 15051D   17153.23066426  .00005098  00000-0  14740-3 0  9992
2 40928  97.2279 189.3164 0010823 251.6378 175.4255 15.36016191 94408
LAPAN-A2 (IO-86)        
1 40931U 15052B   17153.04650474  .00000732  00000-0  13016-4 0  9994
2 40931   6.0008 340.6440 0013462  25.8835 334.2001 14.76529969 90720
LQSAT                   
1 40958U 15057A   17153.23524795  .00000106  00000-0  24205-4 0  9992
2 40958  97.9776 228.8148 0019479 112.4409 247.8889 14.72966520 88911
CHUBUSAT-2              
1 41338U 16012B   17153.24397295  .00000398  00000-0  24565-4 0  9993
2 41338  31.0023 207.1655 0014000 271.8378  88.0653 14.99735264 70745
CHUBUSAT-3              
1 41339U 16012C   17153.17423204  .00000567  00000-0  37729-4 0  9990
2 41339  31.0103 206.7753 0014136 277.4835  82.4206 14.99942440 70714
OUFTI-1                 
1 41458U 16025C   17153.13365224  .00001566  00000-0  88064-4 0  9997
2 41458  98.1877 189.8523 0173911 340.4027  19.0565 15.03127436 60321
E-ST@R-II               
1 41459U 16025D   17153.21962838  .00002650  00000-0  14614-3 0  9995
2 41459  98.1879 189.8938 0174000 340.6862  18.7817 15.02985994 60329
AAUSAT 4                
1 41460U 16025E   17153.15925681  .00004208  00000-0  22911-3 0  9995
2 41460  98.1790 189.9214 0167028 339.1490  20.2956 15.03856840 60334
NUSAT 1 (LO-87)         
1 41557U 16033B   17153.20425480  .00001560  00000-0  61525-4 0  9992
2 41557  97.4630 232.7214 0015811  64.2365 296.0503 15.26999173 56149
BEESAT-4                
1 41619U 16040W   17153.12309632  .00001635  00000-0  77422-4 0  9996
2 41619  97.4630 215.6555 0013776 117.9118 242.3514 15.20696081 40309
PRATHAM                 
1 41783U 16059A   17153.18102989  .00000071  00000-0  23328-4 0  9999
2 41783  98.1680 214.7094 0033106 205.7879 154.1674 14.62835742 36408
ALSAT 1N                
1 41789U 16059G   17153.11364129  .00000143  00000-0  36488-4 0  9995
2 41789  98.1675 215.1124 0027782 199.7352 160.2787 14.64045667 36402
NAYIF-1 (EO-88)         
1 42017U 17008BX  17153.12538955  .00001946  00000-0  86027-4 0  9992
2 42017  97.4963 214.6105 0004906 274.7557  85.3119 15.22917694 16199
